[{"OBJECT_NAME":"STARLINK-6108","OBJECT_ID":"2023-090BG","EPOCH":"2026-03-09T22:24:39.962304","MEAN_MOTION":15.02582046,"ECCENTRICITY":9.225e-5,"INCLINATION":43.0027,"RA_OF_ASC_NODE":259.9939,"ARG_OF_PERICENTER":221.7835,"MEAN_ANOMALY":138.2937,"EPHEMERIS_TYPE":0,"CLASSIFICATION_TYPE":"U","NORAD_CAT_ID":57155,"ELEMENT_SET_NO":999,"REV_AT_EPOCH":15060,"BSTAR":0.00044631111,"MEAN_MOTION_DOT":5.838e-5,"MEAN_MOTION_DDOT":0},{"OBJECT_NAME":"DELTA 1 DEB","OBJECT_ID":"1972-058EG","EPOCH":"2026-03-09T15:29:57.375744","MEAN_MOTION":14.93143945,"ECCENTRICITY":0.0071537,"INCLINATION":98.4418,"RA_OF_ASC_NODE":299.7647,"ARG_OF_PERICENTER":185.1751,"MEAN_ANOMALY":174.8735,"EPHEMERIS_TYPE":0,"CLASSIFICATION_TYPE":"U","NORAD_CAT_ID":8314,"ELEMENT_SET_NO":999,"REV_AT_EPOCH":83297,"BSTAR":0.00043799,"MEAN_MOTION_DOT":4.734e-5,"MEAN_MOTION_DDOT":0}]
